[{"name": "HST", "line1": "1 20580U 90037B   26153.34296606  .00005773  00000+0  18209-3 0  9991", "line2": "2 20580  28.4711 182.0162 0001700 354.7953   5.2625 15.30586461786295"}, {"name": "POLAR", "line1": "1 23802U 96013A   26155.71333008  .00000122  00000+0  00000+0 0  9991", "line2": "2 23802  79.8402 227.1988 6458114 209.5112  89.0597  1.29846118144695"}, {"name": "SWAS", "line1": "1 25560U 98071A   26156.02227029  .00005163  00000+0  32718-3 0  9995", "line2": "2 25560  69.8965 258.8876 0008725 270.9385  89.0779 15.09540121495436"}, {"name": "CXO", "line1": "1 25867U 99040B   26158.79821797  .00000708  00000+0  00000+0 0  9995", "line2": "2 25867  55.9928 116.9568 7854200 310.2595   0.2905  0.37800379 17286"}, {"name": "XMM-NEWTON", "line1": "1 25989U 99066A   26157.37875651  .00000096  00000+0  00000+0 0  9999", "line2": "2 25989  64.5482 283.1267 4678331  65.0797   0.1118  0.50125302 22956"}, {"name": "TERRA", "line1": "1 25994U 99068A   26156.17606898  .00000424  00000+0  95283-4 0  9996", "line2": "2 25994  97.9461 206.1980 0000828 255.9565 196.9019 14.61093234407850"}, {"name": "CLUSTER II-FM7 (SAMBA)", "line1": "1 26410U 00041A   26156.98399886  .00004453  00000+0  00000+0 0  9992", "line2": "2 26410 149.8917  48.5803 9040965 265.6480   0.0292  0.44829937 20254"}, {"name": "CLUSTER II-FM8 (TANGO)", "line1": "1 26464U 00045B   26154.93096890  .00009075  00000+0  00000+0 0  9992", "line2": "2 26464 150.1347  49.2777 9042973 266.1813   3.2525  0.44411373 20255"}, {"name": "ODIN", "line1": "1 26702U 01007A   26156.07744653  .00138173  00000+0  10497-2 0  9996", "line2": "2 26702  97.3851 196.2749 0006301 158.1180 202.0353 15.71871760387493"}, {"name": "TIMED", "line1": "1 26998U 01055B   26156.03209250  .00001644  00000+0  15285-3 0  9994", "line2": "2 26998  74.0681 259.4914 0000430   5.8341 354.2849 14.95265500329000"}, {"name": "CORIOLIS", "line1": "1 27640U 03001A   26156.00671530  .00000113  00000+0  73683-4 0  9990", "line2": "2 27640  98.7126 163.0774 0012880 246.2431 113.7395 14.19941498212490"}, {"name": "SORCE", "line1": "1 27651U 03004A   26156.18478439  .00002922  00000+0  21993-3 0  9993", "line2": "2 27651  39.9921 330.1529 0018266 322.3449  37.6066 15.03645274270092"}, {"name": "MOST", "line1": "1 27843U 03031D   26156.03264061  .00000081  00000+0  57391-4 0  9990", "line2": "2 27843  98.7043 163.9280 0008748 290.1068  69.9167 14.21319977188985"}, {"name": "SCISAT 1", "line1": "1 27858U 03036A   26155.25989080  .00000674  00000+0  90715-4 0  9994", "line2": "2 27858  73.9291 197.0273 0008713 265.5728  94.4453 14.81434457229537"}, {"name": "SWIFT", "line1": "1 28485U 04047A   26151.76835454  .00063707  00000+0  56852-3 0  9990", "line2": "2 28485  20.5544 311.3972 0003289  74.7681 285.3128 15.66645040184289"}, {"name": "HINODE (SOLAR-B)", "line1": "1 29479U 06041A   26155.98971142  .00000909  00000+0  16458-3 0  9996", "line2": "2 29479  98.0549 172.3219 0016629 331.2496  28.7791 14.68605640 53085"}, {"name": "SHIJIAN-6 02A (SJ-6 02A)", "line1": "1 29505U 06046A   26156.15156904  .00005595  00000+0  28824-3 0  9998", "line2": "2 29505  97.6361 197.1284 0003599 152.8244 207.3178 15.16796002 70449"}, {"name": "SHIJIAN-6 02B (SJ-6 02B)", "line1": "1 29506U 06046B   26156.21644997  .00001545  00000+0  12447-3 0  9995", "line2": "2 29506  97.7156 185.3488 0014363  95.2143 265.0721 15.01344861 68940"}, {"name": "FGRST (GLAST)", "line1": "1 33053U 08029A   26156.04941972  .00004308  00000+0  15974-3 0  9992", "line2": "2 33053  25.5830 288.7580 0008171 180.1054 179.9483 15.23882787993983"}, {"name": "SDO", "line1": "1 36395U 10005A   26155.32544691 -.00000070  00000+0  00000+0 0  9991", "line2": "2 36395  34.6250  86.5380 0001331  46.7195 134.7054  1.00271400 59933"}, {"name": "CRYOSAT 2", "line1": "1 36508U 10013A   26156.08938008  .00000155  00000+0  37818-4 0  9994", "line2": "2 36508  92.0346 274.3618 0002264  85.3981 274.7485 14.51895761856325"}, {"name": "X-SAT", "line1": "1 37389U 11015C   26156.22040110  .00000071  00000+0  47595-4 0  9999", "line2": "2 37389  98.3508 133.8145 0014730  22.8633 337.3200 14.25202213785975"}, {"name": "GCOM-W1 (SHIZUKU)", "line1": "1 38337U 12025A   26156.07472294  .00000583  00000+0  13936-3 0  9999", "line2": "2 38337  98.2019  96.8140 0001844  84.8297 285.8901 14.57113109747270"}, {"name": "NUSTAR", "line1": "1 38358U 12031A   26156.25005786  .00013673  00000+0  79154-3 0  9995", "line2": "2 38358   6.0252 123.6574 0008766 286.3183 308.4964 15.08683529  1305"}, {"name": "NEOSSAT", "line1": "1 39089U 13009D   26156.01436035  .00000154  00000+0  67873-4 0  9998", "line2": "2 39089  98.4175 336.3369 0009816 284.6040  75.4057 14.35822139694999"}, {"name": "BRITE-AUSTRIA", "line1": "1 39091U 13009F   26156.01903978  .00000202  00000+0  83363-4 0  9992", "line2": "2 39091  98.3993 335.7563 0008967 277.6198  82.3970 14.36537181695308"}, {"name": "IRIS", "line1": "1 39197U 13033A   26156.04341404  .00001231  00000+0  14700-3 0  9990", "line2": "2 39197  97.9337 355.3586 0024478   2.3032 357.8291 14.85860331698578"}, {"name": "HISAKI (SPRINT-A)", "line1": "1 39253U 13049A   26156.05001855  .00000142  00000+0  10229-3 0  9996", "line2": "2 39253  29.7212 281.7184 0136930 278.4998  80.0077 13.55543351629775"}, {"name": "CASSIOPE", "line1": "1 39265U 13055A   26156.15194054  .00038844 -62252-6  42960-3 0  9993", "line2": "2 39265  80.9143  81.3226 0296814 102.7680 260.6896 15.24099504665832"}, {"name": "STSAT-3", "line1": "1 39422U 13066G   26156.19360649  .00004513  00000+0  34232-3 0  9993", "line2": "2 39422  97.6212 126.2764 0010819  76.4345 283.8085 15.02681608682406"}, {"name": "SWARM B", "line1": "1 39451U 13067A   26156.08762789  .00003869  00000+0  13844-3 0  9994", "line2": "2 39451  87.7440 345.9935 0003412  93.0828 267.0811 15.28475617681390"}]